ONEWEB-0638             
1 55802U 23029G   26096.84234774 -.00000136  00000+0 -40090-3 0  9995
2 55802  87.8930 303.9994 0001779 106.7534 253.3791 13.14501545150021
ONEWEB-0639             
1 55803U 23029H   26096.91575335 -.00000020  00000+0 -81374-4 0  9998
2 55803  87.9181 319.1885 0002741  80.4822 279.6621 13.19727730149502
ONEWEB-0640             
1 55804U 23029J   26096.85186309 -.00000141  00000+0 -41410-3 0  9991
2 55804  87.8929 303.9885 0002169 104.4661 255.6710 13.14503914150040
ONEWEB-0641             
1 55805U 23029K   26096.91101292 -.00000011  00000+0 -60079-4 0  9996
2 55805  87.9183 319.1765 0001880  81.7885 278.3461 13.19727156149510
ONEWEB-0642             
1 55806U 23029L   26096.90628575 -.00000124  00000+0 -34145-3 0  9993
2 55806  87.9181 319.1916 0002485  74.7999 285.3408 13.19725908149508
ONEWEB-0643             
1 55807U 23029M   26096.82172521 -.00000140  00000+0 -41235-3 0  9996
2 55807  87.8929 303.9817 0002173  72.8635 287.2732 13.14500755150014
ONEWEB-0644             
1 55808U 23029N   26096.90153745  .00000000  00000+0 -31466-4 0  9993
2 55808  87.9173 319.1968 0002050  78.2303 281.9059 13.19727360149502
ONEWEB-0645             
1 55809U 23029P   26096.84782931 -.00000162  00000+0 -43604-3 0  9998
2 55809  87.9180 319.2023 0002177  89.5622 270.5760 13.19724476149499
ONEWEB-0646             
1 55810U 23029Q   26096.86520960  .00000046  00000+0  81378-4 0  9994
2 55810  87.9182 319.1988 0001979  79.0891 281.0465 13.19726336149488
ONEWEB-0648             
1 55811U 23029R   26096.86613219 -.00000006  00000+0 -50593-4 0  9998
2 55811  87.8935 303.9394 0002655  88.1612 271.9822 13.14502504150021
ONEWEB-0649             
1 55812U 23029S   26096.89047201  .00000022  00000+0  22422-4 0  9990
2 55812  87.9180 319.1908 0002041  86.0546 274.0820 13.19727007149524
ONEWEB-0650             
1 55813U 23029T   26096.88574246 -.00000021  00000+0 -85639-4 0  9994
2 55813  87.9179 319.1947 0002183  79.2983 280.8395 13.19726225149491
ONEWEB-0652             
1 55814U 23029U   26096.61874172 -.00000128  00000+0 -38093-3 0  9996
2 55814  87.8926 304.0020 0001538  88.0270 272.1036 13.14503740149964
ONEWEB-0653             
1 55815U 23029V   26096.83123639 -.00000192  00000+0 -55179-3 0  9991
2 55815  87.8938 303.9527 0001670  93.2145 266.9176 13.14501668150026
ONEWEB-0654             
1 55816U 23029W   26096.06529985 -.00000197  00000+0 -56557-3 0  9997
2 55816  87.8931 304.1028 0001370  92.6660 267.4627 13.14501089149944
ONEWEB-0656             
1 55817U 23029X   26096.91693233  .00000034  00000+0  52799-4 0  9993
2 55817  87.9136 288.6575 0001341  99.1506 260.9779 13.20771092151742
