[{"OBJECT_NAME":"ONEWEB-0638","OBJECT_ID":"2023-029G","EPOCH":"2026-04-06T20:12:58.844736","MEAN_MOTION":13.14501545,"ECCENTRICITY":0.0001779,"INCLINATION":87.893,"RA_OF_ASC_NODE":303.9994,"ARG_OF_PERICENTER":106.7534,"MEAN_ANOMALY":253.3791,"EPHEMERIS_TYPE":0,"CLASSIFICATION_TYPE":"U","NORAD_CAT_ID":55802,"ELEMENT_SET_NO":999,"REV_AT_EPOCH":15002,"BSTAR":-0.0004009,"MEAN_MOTION_DOT":-1.36e-06,"MEAN_MOTION_DDOT":0.0},{"OBJECT_NAME":"ONEWEB-0639","OBJECT_ID":"2023-029H","EPOCH":"2026-04-06T21:58:41.089440","MEAN_MOTION":13.1972773,"ECCENTRICITY":0.0002741,"INCLINATION":87.9181,"RA_OF_ASC_NODE":319.1885,"ARG_OF_PERICENTER":80.4822,"MEAN_ANOMALY":279.6621,"EPHEMERIS_TYPE":0,"CLASSIFICATION_TYPE":"U","NORAD_CAT_ID":55803,"ELEMENT_SET_NO":999,"REV_AT_EPOCH":14950,"BSTAR":-8.137400000000001e-05,"MEAN_MOTION_DOT":-2e-07,"MEAN_MOTION_DDOT":0.0},{"OBJECT_NAME":"ONEWEB-0640","OBJECT_ID":"2023-029J","EPOCH":"2026-04-06T20:26:40.970976","MEAN_MOTION":13.14503914,"ECCENTRICITY":0.0002169,"INCLINATION":87.8929,"RA_OF_ASC_NODE":303.9885,"ARG_OF_PERICENTER":104.4661,"MEAN_ANOMALY":255.671,"EPHEMERIS_TYPE":0,"CLASSIFICATION_TYPE":"U","NORAD_CAT_ID":55804,"ELEMENT_SET_NO":999,"REV_AT_EPOCH":15004,"BSTAR":-0.00041410000000000004,"MEAN_MOTION_DOT":-1.41e-06,"MEAN_MOTION_DDOT":0.0},{"OBJECT_NAME":"ONEWEB-0641","OBJECT_ID":"2023-029K","EPOCH":"2026-04-06T21:51:51.516288","MEAN_MOTION":13.19727156,"ECCENTRICITY":0.000188,"INCLINATION":87.9183,"RA_OF_ASC_NODE":319.1765,"ARG_OF_PERICENTER":81.7885,"MEAN_ANOMALY":278.3461,"EPHEMERIS_TYPE":0,"CLASSIFICATION_TYPE":"U","NORAD_CAT_ID":55805,"ELEMENT_SET_NO":999,"REV_AT_EPOCH":14951,"BSTAR":-6.0079000000000005e-05,"MEAN_MOTION_DOT":-1.1e-07,"MEAN_MOTION_DDOT":0.0},{"OBJECT_NAME":"ONEWEB-0642","OBJECT_ID":"2023-029L","EPOCH":"2026-04-06T21:45:03.088800","MEAN_MOTION":13.19725908,"ECCENTRICITY":0.0002485,"INCLINATION":87.9181,"RA_OF_ASC_NODE":319.1916,"ARG_OF_PERICENTER":74.7999,"MEAN_ANOMALY":285.3408,"EPHEMERIS_TYPE":0,"CLASSIFICATION_TYPE":"U","NORAD_CAT_ID":55806,"ELEMENT_SET_NO":999,"REV_AT_EPOCH":14950,"BSTAR":-0.00034145,"MEAN_MOTION_DOT":-1.24e-06,"MEAN_MOTION_DDOT":0.0},{"OBJECT_NAME":"ONEWEB-0643","OBJECT_ID":"2023-029M","EPOCH":"2026-04-06T19:43:17.058144","MEAN_MOTION":13.14500755,"ECCENTRICITY":0.0002173,"INCLINATION":87.8929,"RA_OF_ASC_NODE":303.9817,"ARG_OF_PERICENTER":72.8635,"MEAN_ANOMALY":287.2732,"EPHEMERIS_TYPE":0,"CLASSIFICATION_TYPE":"U","NORAD_CAT_ID":55807,"ELEMENT_SET_NO":999,"REV_AT_EPOCH":15001,"BSTAR":-0.00041235,"MEAN_MOTION_DOT":-1.4e-06,"MEAN_MOTION_DDOT":0.0},{"OBJECT_NAME":"ONEWEB-0644","OBJECT_ID":"2023-029N","EPOCH":"2026-04-06T21:38:12.835680","MEAN_MOTION":13.1972736,"ECCENTRICITY":0.000205,"INCLINATION":87.9173,"RA_OF_ASC_NODE":319.1968,"ARG_OF_PERICENTER":78.2303,"MEAN_ANOMALY":281.9059,"EPHEMERIS_TYPE":0,"CLASSIFICATION_TYPE":"U","NORAD_CAT_ID":55808,"ELEMENT_SET_NO":999,"REV_AT_EPOCH":14950,"BSTAR":-3.1466e-05,"MEAN_MOTION_DOT":0.0,"MEAN_MOTION_DDOT":0.0},{"OBJECT_NAME":"ONEWEB-0645","OBJECT_ID":"2023-029P","EPOCH":"2026-04-06T20:20:52.452384","MEAN_MOTION":13.19724476,"ECCENTRICITY":0.0002177,"INCLINATION":87.918,"RA_OF_ASC_NODE":319.2023,"ARG_OF_PERICENTER":89.5622,"MEAN_ANOMALY":270.576,"EPHEMERIS_TYPE":0,"CLASSIFICATION_TYPE":"U","NORAD_CAT_ID":55809,"ELEMENT_SET_NO":999,"REV_AT_EPOCH":14949,"BSTAR":-0.00043604,"MEAN_MOTION_DOT":-1.62e-06,"MEAN_MOTION_DDOT":0.0},{"OBJECT_NAME":"ONEWEB-0646","OBJECT_ID":"2023-029Q","EPOCH":"2026-04-06T20:45:54.109440","MEAN_MOTION":13.19726336,"ECCENTRICITY":0.0001979,"INCLINATION":87.9182,"RA_OF_ASC_NODE":319.1988,"ARG_OF_PERICENTER":79.0891,"MEAN_ANOMALY":281.0465,"EPHEMERIS_TYPE":0,"CLASSIFICATION_TYPE":"U","NORAD_CAT_ID":55810,"ELEMENT_SET_NO":999,"REV_AT_EPOCH":14948,"BSTAR":8.137799999999999e-05,"MEAN_MOTION_DOT":4.6e-07,"MEAN_MOTION_DDOT":0.0},{"OBJECT_NAME":"ONEWEB-0648","OBJECT_ID":"2023-029R","EPOCH":"2026-04-06T20:47:13.821216","MEAN_MOTION":13.14502504,"ECCENTRICITY":0.0002655,"INCLINATION":87.8935,"RA_OF_ASC_NODE":303.9394,"ARG_OF_PERICENTER":88.1612,"MEAN_ANOMALY":271.9822,"EPHEMERIS_TYPE":0,"CLASSIFICATION_TYPE":"U","NORAD_CAT_ID":55811,"ELEMENT_SET_NO":999,"REV_AT_EPOCH":15002,"BSTAR":-5.0593e-05,"MEAN_MOTION_DOT":-6e-08,"MEAN_MOTION_DDOT":0.0},{"OBJECT_NAME":"ONEWEB-0649","OBJECT_ID":"2023-029S","EPOCH":"2026-04-06T21:22:16.781664","MEAN_MOTION":13.19727007,"ECCENTRICITY":0.0002041,"INCLINATION":87.918,"RA_OF_ASC_NODE":319.1908,"ARG_OF_PERICENTER":86.0546,"MEAN_ANOMALY":274.082,"EPHEMERIS_TYPE":0,"CLASSIFICATION_TYPE":"U","NORAD_CAT_ID":55812,"ELEMENT_SET_NO":999,"REV_AT_EPOCH":14952,"BSTAR":2.2422e-05,"MEAN_MOTION_DOT":2.2e-07,"MEAN_MOTION_DDOT":0.0},{"OBJECT_NAME":"ONEWEB-0650","OBJECT_ID":"2023-029T","EPOCH":"2026-04-06T21:15:28.148544","MEAN_MOTION":13.19726225,"ECCENTRICITY":0.0002183,"INCLINATION":87.9179,"RA_OF_ASC_NODE":319.1947,"ARG_OF_PERICENTER":79.2983,"MEAN_ANOMALY":280.8395,"EPHEMERIS_TYPE":0,"CLASSIFICATION_TYPE":"U","NORAD_CAT_ID":55813,"ELEMENT_SET_NO":999,"REV_AT_EPOCH":14949,"BSTAR":-8.5639e-05,"MEAN_MOTION_DOT":-2.1e-07,"MEAN_MOTION_DDOT":0.0},{"OBJECT_NAME":"ONEWEB-0652","OBJECT_ID":"2023-029U","EPOCH":"2026-04-06T14:50:59.284608","MEAN_MOTION":13.1450374,"ECCENTRICITY":0.0001538,"INCLINATION":87.8926,"RA_OF_ASC_NODE":304.002,"ARG_OF_PERICENTER":88.027,"MEAN_ANOMALY":272.1036,"EPHEMERIS_TYPE":0,"CLASSIFICATION_TYPE":"U","NORAD_CAT_ID":55814,"ELEMENT_SET_NO":999,"REV_AT_EPOCH":14996,"BSTAR":-0.00038093,"MEAN_MOTION_DOT":-1.28e-06,"MEAN_MOTION_DDOT":0.0},{"OBJECT_NAME":"ONEWEB-0653","OBJECT_ID":"2023-029V","EPOCH":"2026-04-06T19:56:58.824096","MEAN_MOTION":13.14501668,"ECCENTRICITY":0.000167,"INCLINATION":87.8938,"RA_OF_ASC_NODE":303.9527,"ARG_OF_PERICENTER":93.2145,"MEAN_ANOMALY":266.9176,"EPHEMERIS_TYPE":0,"CLASSIFICATION_TYPE":"U","NORAD_CAT_ID":55815,"ELEMENT_SET_NO":999,"REV_AT_EPOCH":15002,"BSTAR":-0.00055179,"MEAN_MOTION_DOT":-1.92e-06,"MEAN_MOTION_DDOT":0.0},{"OBJECT_NAME":"ONEWEB-0654","OBJECT_ID":"2023-029W","EPOCH":"2026-04-06T01:34:01.907040","MEAN_MOTION":13.14501089,"ECCENTRICITY":0.000137,"INCLINATION":87.8931,"RA_OF_ASC_NODE":304.1028,"ARG_OF_PERICENTER":92.666,"MEAN_ANOMALY":267.4627,"EPHEMERIS_TYPE":0,"CLASSIFICATION_TYPE":"U","NORAD_CAT_ID":55816,"ELEMENT_SET_NO":999,"REV_AT_EPOCH":14994,"BSTAR":-0.00056557,"MEAN_MOTION_DOT":-1.97e-06,"MEAN_MOTION_DDOT":0.0},{"OBJECT_NAME":"ONEWEB-0656","OBJECT_ID":"2023-029X","EPOCH":"2026-04-06T22:00:22.953312","MEAN_MOTION":13.20771092,"ECCENTRICITY":0.0001341,"INCLINATION":87.9136,"RA_OF_ASC_NODE":288.6575,"ARG_OF_PERICENTER":99.1506,"MEAN_ANOMALY":260.9779,"EPHEMERIS_TYPE":0,"CLASSIFICATION_TYPE":"U","NORAD_CAT_ID":55817,"ELEMENT_SET_NO":999,"REV_AT_EPOCH":15174,"BSTAR":5.2799e-05,"MEAN_MOTION_DOT":3.4e-07,"MEAN_MOTION_DDOT":0.0}]